start=new Date('2021-12-14T00:00:00.000Z').valueOf();
sats=[{"BSTAR":"-0.00147370000000","MEAN_MOTION":"15.40500067","OBJECT_TYPE":"PAYLOAD","TLE_LINE2":"2 49768  53.2143 265.6296 0001152 350.4638 348.4524 15.40500067  2132","REV_AT_EPOCH":"213","RCS_SIZE":"MEDIUM","MEAN_MOTION_DDOT":"0.0000000000000","OBJECT_NAME":"STARLINK-3196","MEAN_ELEMENT_THEORY":"SGP4","MEAN_ANOMALY":"348.4524","ARG_OF_PERICENTER":"350.4638","RA_OF_ASC_NODE":"265.6296","EPHEMERIS_TYPE":"0","CENTER_NAME":"EARTH","NORAD_CAT_ID":"49768","DECAY_DATE":null,"LAUNCH_DATE":"2021-12-02","REF_FRAME":"TEME","SEMIMAJOR_AXIS":"6822.769","FILE":"3239585","INCLINATION":"53.2143","APOAPSIS":"445.420","PERIAPSIS":"443.848","CLASSIFICATION_TYPE":"U","SITE":"AFETR","ELEMENT_SET_NO":"999","TIME_SYSTEM":"UTC","GP_ID":"191661798","OBJECT_ID":"2021-115AW","TLE_LINE1":"1 49768U 21115AW  21347.91667824 -.00060604  00000-0 -14737-2 0  9996","COUNTRY_CODE":"US","EPOCH":"2021-12-13T22:00:00.999936","MEAN_MOTION_DOT":"-0.00060604","ECCENTRICITY":"0.00011520","PERIOD":"93.476"},{"EPHEMERIS_TYPE":"0","ARG_OF_PERICENTER":"48.0479","RA_OF_ASC_NODE":"265.6282","MEAN_ANOMALY":"291.9087","MEAN_ELEMENT_THEORY":"SGP4","OBJECT_NAME":"STARLINK-3208","MEAN_MOTION_DDOT":"0.0000000000000","RCS_SIZE":"MEDIUM","REV_AT_EPOCH":"214","TLE_LINE2":"2 49769  53.2148 265.6282 0001883  48.0479 291.9087 15.40478862  2141","OBJECT_TYPE":"PAYLOAD","MEAN_MOTION":"15.40478862","BSTAR":"-0.00070182000000","FILE":"3239585","SEMIMAJOR_AXIS":"6822.832","REF_FRAME":"TEME","LAUNCH_DATE":"2021-12-02","DECAY_DATE":null,"NORAD_CAT_ID":"49769","CENTER_NAME":"EARTH","SITE":"AFETR","CLASSIFICATION_TYPE":"U","PERIAPSIS":"443.412","APOAPSIS":"445.982","INCLINATION":"53.2148","PERIOD":"93.477","ECCENTRICITY":"0.00018830","MEAN_MOTION_DOT":"-0.00029172","EPOCH":"2021-12-13T22:00:00.999936","COUNTRY_CODE":"US","TLE_LINE1":"1 49769U 21115AX  21347.91667824 -.00029172  00000-0 -70182-3 0  9999","OBJECT_ID":"2021-115AX","GP_ID":"191662379","TIME_SYSTEM":"UTC","ELEMENT_SET_NO":"999"},{"DECAY_DATE":null,"NORAD_CAT_ID":"49770","CENTER_NAME":"EARTH","FILE":"3239585","SEMIMAJOR_AXIS":"6822.770","LAUNCH_DATE":"2021-12-02","REF_FRAME":"TEME","REV_AT_EPOCH":"213","RCS_SIZE":"MEDIUM","MEAN_MOTION":"15.40500024","TLE_LINE2":"2 49770  53.2142 265.6318 0001286  14.4406 323.4212 15.40500024  2137","OBJECT_TYPE":"PAYLOAD","BSTAR":"-0.00150100000000","RA_OF_ASC_NODE":"265.6318","ARG_OF_PERICENTER":"14.4406","EPHEMERIS_TYPE":"0","MEAN_ANOMALY":"323.4212","MEAN_ELEMENT_THEORY":"SGP4","MEAN_MOTION_DDOT":"0.0000000000000","OBJECT_NAME":"STARLINK-3191","TLE_LINE1":"1 49770U 21115AY  21347.91667824 -.00061711  00000-0 -15010-2 0  9994","COUNTRY_CODE":"US","TIME_SYSTEM":"UTC","GP_ID":"191661023","OBJECT_ID":"2021-115AY","ELEMENT_SET_NO":"999","PERIOD":"93.476","ECCENTRICITY":"0.00012860","EPOCH":"2021-12-13T22:00:00.999936","MEAN_MOTION_DOT":"-0.00061711","SITE":"AFETR","APOAPSIS":"445.512","PERIAPSIS":"443.757","CLASSIFICATION_TYPE":"U","INCLINATION":"53.2142"},{"LAUNCH_DATE":"2021-12-02","REF_FRAME":"TEME","SEMIMAJOR_AXIS":"6822.792","FILE":"3239585","CENTER_NAME":"EARTH","NORAD_CAT_ID":"49771","DECAY_DATE":null,"OBJECT_NAME":"STARLINK-3201","MEAN_MOTION_DDOT":"0.0000000000000","MEAN_ANOMALY":"281.9446","MEAN_ELEMENT_THEORY":"SGP4","ARG_OF_PERICENTER":"54.8626","RA_OF_ASC_NODE":"265.6345","EPHEMERIS_TYPE":"0","BSTAR":"-0.00141800000000","MEAN_MOTION":"15.40492396","TLE_LINE2":"2 49771  53.2147 265.6345 0001404  54.8626 281.9446 15.40492396  2136","OBJECT_TYPE":"PAYLOAD","REV_AT_EPOCH":"213","RCS_SIZE":"MEDIUM","EPOCH":"2021-12-13T22:00:00.999936","MEAN_MOTION_DOT":"-0.00058332","ECCENTRICITY":"0.00014040","PERIOD":"93.477","ELEMENT_SET_NO":"999","TIME_SYSTEM":"UTC","GP_ID":"191661217","OBJECT_ID":"2021-115AZ","TLE_LINE1":"1 49771U 21115AZ  21347.91667824 -.00058332  00000-0 -14180-2 0  9997","COUNTRY_CODE":"US","INCLINATION":"53.2147","PERIAPSIS":"443.699","APOAPSIS":"445.615","CLASSIFICATION_TYPE":"U","SITE":"AFETR"}];
